NORAD_CAT_ID,OBJECT_NAME,OBJECT_TYPE,EPOCH,MEAN_MOTION,ECCENTRICITY,INCLINATION,RA_OF_ASC_NODE,ARG_OF_PERICENTER,MEAN_ANOMALY,BSTAR,MEAN_MOTION_DOT,MEAN_MOTION_DDOT,TLE_LINE0,TLE_LINE1,TLE_LINE2,SEMIMAJOR_AXIS,PERIOD,APOGEE,PERIGEE,DECAYED
54797.0,STARLINK-5435,PAYLOAD,2023-05-02 04:53:46,15.0885046,0.0001432,53.2197,43.694,100.6736,259.4418,0.00016563,2.35e-05,0.0,0 STARLINK-5435,1 54797U 22175AR  23122.20401309  .00002350  00000-0  16563-3 0  9992,2 54797  53.2197  43.6940 0001432 100.6736 259.4418 15.08850460 20383,6917.848,95.437,540.704,538.723,0.0
54797.0,STARLINK-5435,PAYLOAD,2023-05-03 04:44:34,15.08847131,0.0001137,53.2196,39.2347,86.1726,273.9396,0.00018211,2.612e-05,0.0,0 STARLINK-5435,1 54797U 22175AR  23123.19761594  .00002612  00000-0  18211-3 0  9999,2 54797  53.2196  39.2347 0001137  86.1726 273.9396 15.08847131 20537,6917.859,95.437,540.51,538.937,0.0
54797.0,STARLINK-5435,PAYLOAD,2023-05-03 11:06:06,15.08841062,9.58e-05,53.2184,38.044,93.3763,266.7339,0.00011664,1.569e-05,0.0,0 STARLINK-5435,1 54797U 22175AR  23123.46258079  .00001569  00000-0  11664-3 0  9993,2 54797  53.2184  38.0440 0000958  93.3763 266.7339 15.08841062 20574,6917.877,95.437,540.405,539.079,0.0
54797.0,STARLINK-5435,PAYLOAD,2023-05-04 10:56:54,15.08844521,0.0001211,53.2196,33.5868,80.3137,279.7992,-5.8374e-05,-1.217e-05,0.0,0 STARLINK-5435,1 54797U 22175AR  23124.45618332 -.00001217  00000-0 -58374-4 0  9997,2 54797  53.2196  33.5868 0001211  80.3137 279.7992 15.08844521 22883,6917.867,95.437,540.569,538.894,0.0
54797.0,STARLINK-5435,PAYLOAD,2023-05-05 02:50:45,15.08844053,0.0001249,53.2194,30.6122,83.6367,276.4767,6.38e-05,7.28e-06,0.0,0 STARLINK-5435,1 54797U 22175AR  23125.11858368  .00000728  00000-0  63800-4 0  9990,2 54797  53.2194  30.6122 0001249  83.6367 276.4767 15.08844053 20820,6917.868,95.437,540.597,538.869,0.0
54797.0,STARLINK-5435,PAYLOAD,2023-05-06 01:06:09,15.08844221,0.000119,53.219,26.4487,88.4348,271.6781,0.00011196,1.495e-05,0.0,0 STARLINK-5435,1 54797U 22175AR  23126.04594445  .00001495  00000-0  11196-3 0  9998,2 54797  53.2190  26.4487 0001190  88.4348 271.6781 15.08844221 23126,6917.867,95.437,540.556,538.909,0.0
54797.0,STARLINK-5435,PAYLOAD,2023-05-06 23:21:33,15.08851445,0.0001077,53.2186,22.2876,101.0835,259.0278,0.00012403,1.687e-05,0.0,0 STARLINK-5435,1 54797U 22175AR  23126.97330024  .00001687  00000-0  12403-3 0  9996,2 54797  53.2186  22.2876 0001077 101.0835 259.0278 15.08851445 21107,6917.845,95.437,540.455,538.965,0.0
54797.0,STARLINK-5435,PAYLOAD,2023-05-07 21:36:58,15.08837463,0.0001109,53.2183,18.1252,81.9491,278.1627,2.077e-05,4.3e-07,0.0,0 STARLINK-5435,1 54797U 22175AR  23127.90067433  .00000043  00000-0  20770-4 0  9993,2 54797  53.2183  18.1252 0001109  81.9491 278.1627 15.08837463 23405,6917.888,95.438,540.52,538.986,0.0
54797.0,STARLINK-5435,PAYLOAD,2023-05-08 02:23:07,15.08840326,0.0001217,53.2198,17.2299,97.9645,262.1485,-2.7188e-06,-3.31e-06,0.0,0 STARLINK-5435,1 54797U 22175AR  23128.09939245 -.00000331  00000-0 -27188-5 0  9996,2 54797  53.2198  17.2299 0001217  97.9645 262.1485 15.08840326 21270,6917.879,95.438,540.586,538.902,0.0
54797.0,STARLINK-5435,PAYLOAD,2023-05-08 21:27:44,15.08848805,0.0001222,53.2186,13.6622,93.7869,266.3263,0.00015218,2.135e-05,0.0,0 STARLINK-5435,1 54797U 22175AR  23128.89426804  .00002135  00000-0  15218-3 0  9997,2 54797  53.2186  13.6622 0001222  93.7869 266.3263 15.08848805 23558,6917.853,95.437,540.564,538.873,0.0
54797.0,STARLINK-5435,PAYLOAD,2023-05-08 23:03:07,15.08853133,0.0001283,53.2191,13.3644,100.0928,260.0208,0.00020313,2.948e-05,0.0,0 STARLINK-5435,1 54797U 22175AR  23128.96050550  .00002948  00000-0  20313-3 0  9990,2 54797  53.2191  13.3644 0001283 100.0928 260.0208 15.08853133 23561,6917.84,95.437,540.593,538.818,0.0
54797.0,STARLINK-5435,PAYLOAD,2023-05-10 00:29:17,15.08846657,0.0001439,53.2189,8.6116,109.1705,250.9443,0.00019958,2.89e-05,0.0,0 STARLINK-5435,1 54797U 22175AR  23130.02034709  .00002890  00000-0  19958-3 0  9997,2 54797  53.2189   8.6116 0001439 109.1705 250.9443 15.08846657 23725,6917.86,95.437,540.721,538.73,0.0
54797.0,STARLINK-5435,PAYLOAD,2023-05-10 19:33:55,15.0884505,0.0001559,53.219,5.0442,118.1585,241.9565,-5.072e-05,-1.095e-05,0.0,0 STARLINK-5435,1 54797U 22175AR  23130.81522784 -.00001095  00000-0 -50720-4 0  9990,2 54797  53.2190   5.0442 0001559 118.1585 241.9565 15.08845050 23843,6917.865,95.437,540.808,538.651,0.0
54797.0,STARLINK-5435,PAYLOAD,2023-05-10 22:44:41,15.08846032,0.000164,53.2191,4.4506,120.7763,239.339,-2.7431e-05,-7.25e-06,0.0,0 STARLINK-5435,1 54797U 22175AR  23130.94770675 -.00000725  00000-0 -27431-4 0  9990,2 54797  53.2191   4.4506 0001640 120.7763 239.3390 15.08846032 23866,6917.862,95.437,540.861,538.592,0.0
54797.0,STARLINK-5435,PAYLOAD,2023-05-11 21:00:06,15.08834291,0.0001545,53.2188,0.2883,124.8906,235.2232,-4.8848e-05,-1.065e-05,0.0,0 STARLINK-5435,1 54797U 22175AR  23131.87507436 -.00001065  00000-0 -48848-4 0  9999,2 54797  53.2188   0.2883 0001545 124.8906 235.2232 15.08834291 21842,6917.898,95.438,540.832,538.694,0.0
54797.0,STARLINK-5435,PAYLOAD,2023-05-11 22:35:29,15.08835591,0.0001146,53.2184,359.9877,109.7752,250.3364,-3.3593e-05,-8.22e-06,0.0,0 STARLINK-5435,1 54797U 22175AR  23131.94131397 -.00000822  00000-0 -33593-4 0  9997,2 54797  53.2184 359.9877 0001146 109.7752 250.3364 15.08835591 24013,6917.894,95.438,540.552,538.966,0.0
54797.0,STARLINK-5435,PAYLOAD,2023-05-12 17:40:07,15.0884584,9.05e-05,53.2176,356.4188,108.3799,251.7292,1.9163e-05,1.7e-07,0.0,0 STARLINK-5435,1 54797U 22175AR  23132.73619439  .00000017  00000-0  19163-4 0  9994,2 54797  53.2176 356.4188 0000905 108.3799 251.7292 15.08845840 24135,6917.863,95.437,540.354,539.101,0.0
54797.0,STARLINK-5435,PAYLOAD,2023-05-12 22:26:16,15.0883208,0.0001113,53.2176,355.5266,107.2785,252.8329,0.00043357,6.618e-05,0.0,0 STARLINK-5435,1 54797U 22175AR  23132.93491374  .00006618  00000-0  43357-3 0  9996,2 54797  53.2176 355.5266 0001113 107.2785 252.8329 15.08832080 22006,6917.905,95.438,540.54,539.0,0.0
54797.0,STARLINK-5435,PAYLOAD,2023-05-13 22:17:24,15.08473552,0.0001107,53.2179,351.0665,83.5609,276.5509,-0.0047313,-0.00074067,0.0,0 STARLINK-5435,1 54797U 22175AR  23133.92875257 -.00074067  00000-0 -47313-2 0  9992,2 54797  53.2179 351.0665 0001107  83.5609 276.5509 15.08473552 22151,6919.001,95.461,541.632,540.1,0.0
54797.0,STARLINK-5435,PAYLOAD,2023-05-14 04:39:08,15.08331614,9e-05,53.2183,349.8775,81.9817,278.1277,-0.0060777,-0.00094425,0.0,0 STARLINK-5435,1 54797U 22175AR  23134.19384651 -.00094425  00000-0 -60777-2 0  9994,2 54797  53.2183 349.8775 0000900  81.9817 278.1277 15.08331614 22192,6919.435,95.47,541.923,540.677,0.0
54797.0,STARLINK-5435,PAYLOAD,2023-05-14 20:33:43,15.07847998,0.0001343,53.2176,346.9078,73.7813,286.3326,-0.010662,-0.00161743,0.0,0 STARLINK-5435,1 54797U 22175AR  23134.85675750 -.00161743  00000-0 -10662-1 0  9995,2 54797  53.2176 346.9078 0001343  73.7813 286.3326 15.07847998 22298,6920.914,95.5,543.709,541.85,0.0
54797.0,STARLINK-5435,PAYLOAD,2023-05-15 06:00:00,15.07209322,0.0001036,53.2176,345.146,81.363,254.0961,-0.002452,-0.00037416,0.0,0 STARLINK-5435,1 54797U 22175AR  23135.25001157 -.00037416  00000-0 -24520-2 0  9992,2 54797  53.2176 345.1460 0001036  81.3630 254.0961 15.07209322 22352,6922.869,95.541,545.451,544.017,0.0
54797.0,STARLINK-5435,PAYLOAD,2023-05-15 14:00:01,15.0719047,0.0001055,53.2179,343.6526,95.926,249.1574,0.0020939,0.0003172,0.0,0 STARLINK-5435,1 54797U 22175AR  23135.58334491  .00031720  00000-0  20939-2 0  9998,2 54797  53.2179 343.6526 0001055  95.9260 249.1574 15.07190470  1302,6922.927,95.542,545.522,544.062,0.0
54797.0,STARLINK-5435,PAYLOAD,2023-05-15 22:00:00,15.07203736,0.0001111,53.2178,342.1618,82.2038,272.5097,-0.00072307,-0.00011272,0.0,0 STARLINK-5435,1 54797U 22175AR  23135.91667824 -.00011272  00000-0 -72307-3 0  9993,2 54797  53.2178 342.1618 0001111  82.2038 272.5097 15.07203736 22451,6922.886,95.541,545.52,543.982,0.0
54797.0,STARLINK-5435,PAYLOAD,2023-05-16 14:00:01,15.07190551,0.0001111,53.218,339.175,101.4923,272.4884,0.0015577,0.00023497,0.0,0 STARLINK-5435,1 54797U 22175AR  23136.58335648  .00023497  00000-0  15577-2 0  9998,2 54797  53.2180 339.1750 0001111 101.4923 272.4884 15.07190551  1308,6922.927,95.542,545.561,544.023,0.0
54797.0,STARLINK-5435,PAYLOAD,2023-05-16 22:00:00,15.07195337,0.0001085,53.2178,337.6842,86.8662,296.6817,0.0010952,0.00016422,0.0,0 STARLINK-5435,1 54797U 22175AR  23136.91667824  .00016422  00000-0  10952-2 0  9991,2 54797  53.2178 337.6842 0001085  86.8662 296.6817 15.07195337  1307,6922.912,95.542,545.528,544.026,0.0
54797.0,STARLINK-5435,PAYLOAD,2023-05-17 04:00:00,15.07222282,0.0001,53.2174,336.564,88.4497,212.31,-0.0013481,-0.00020754,0.0,0 STARLINK-5435,1 54797U 22175AR  23137.16667824 -.00020754  00000-0 -13481-2 0  9994,2 54797  53.2174 336.5640 0001000  88.4497 212.3100 15.07222282 22648,6922.83,95.54,545.387,544.002,0.0
54797.0,STARLINK-5435,PAYLOAD,2023-05-17 22:00:00,15.07217113,0.0001019,53.2175,333.2063,81.1892,331.2776,-0.0017294,-0.00026519,0.0,0 STARLINK-5435,1 54797U 22175AR  23137.91667824 -.00026519  00000-0 -17294-2 0  9998,2 54797  53.2175 333.2063 0001019  81.1892 331.2776 15.07217113 22750,6922.845,95.54,545.416,544.005,0.0
54797.0,STARLINK-5435,PAYLOAD,2023-05-17 23:21:37,15.07220761,0.0001011,53.2175,332.9508,90.7272,269.3835,0.00059197,8.743e-05,0.0,0 STARLINK-5435,1 54797U 22175AR  23137.97334606  .00008743  00000-0  59197-3 0  9999,2 54797  53.2175 332.9508 0001011  90.7272 269.3835 15.07220761 22761,6922.834,95.54,545.399,543.999,0.0
54797.0,STARLINK-5435,PAYLOAD,2023-05-18 05:43:34,15.07214784,0.0001014,53.2174,331.763,91.2301,268.8806,0.0002862,4.077e-05,0.0,0 STARLINK-5435,1 54797U 22175AR  23138.23859400  .00004077  00000-0  28620-3 0  9996,2 54797  53.2174 331.7630 0001014  91.2301 268.8806 15.07214784 22800,6922.852,95.54,545.419,544.016,0.0
